NORAD_CAT_ID,OBJECT_NAME,OBJECT_TYPE,EPOCH,MEAN_MOTION,ECCENTRICITY,INCLINATION,RA_OF_ASC_NODE,ARG_OF_PERICENTER,MEAN_ANOMALY,BSTAR,MEAN_MOTION_DOT,MEAN_MOTION_DDOT,TLE_LINE0,TLE_LINE1,TLE_LINE2,SEMIMAJOR_AXIS,PERIOD,APOGEE,PERIGEE,DECAYED
53902.0,STARLINK-5021,PAYLOAD,2023-04-18 15:44:50,15.08845147,0.000114,53.218,334.6327,87.657,272.4552,0.00022278,3.26e-05,0.0,0 STARLINK-5021,1 53902U 22119S   23108.65613835  .00003260  00000-0  22278-3 0  9990,2 53902  53.2180 334.6327 0001140  87.6570 272.4552 15.08845147 32541,6917.865,95.437,540.518,538.941,0.0
53902.0,STARLINK-5021,PAYLOAD,2023-04-19 02:52:23,15.09062642,0.0001697,53.2188,332.5524,76.9061,283.212,0.0039598,0.0006369,0.0,0 STARLINK-5021,1 53902U 22119S   23109.11971502  .00063690  00000-0  39598-2 0  9995,2 53902  53.2188 332.5524 0001697  76.9061 283.2120 15.09062642 32619,6917.2,95.423,540.239,537.891,0.0
53902.0,STARLINK-5021,PAYLOAD,2023-04-19 13:59:49,15.09307108,0.0001914,53.218,330.4681,87.2585,272.8626,0.0068717,0.00112251,0.0,0 STARLINK-5021,1 53902U 22119S   23109.58320720  .00112251  00000-0  68717-2 0  9999,2 53902  53.2180 330.4681 0001914  87.2585 272.8626 15.09307108 33109,6916.453,95.408,539.642,536.994,0.0
53902.0,STARLINK-5021,PAYLOAD,2023-04-20 02:42:20,15.09735754,0.0001649,53.2185,328.088,76.0293,284.0883,0.010812,0.00180612,0.0,0 STARLINK-5021,1 53902U 22119S   23110.11273289  .00180612  00000-0  10812-1 0  9995,2 53902  53.2185 328.0880 0001649  76.0293 284.0883 15.09735754 32768,6915.144,95.381,538.149,535.868,0.0
53902.0,STARLINK-5021,PAYLOAD,2023-04-20 14:00:01,15.10465906,0.0001593,53.217,325.9691,89.4007,310.9347,0.0014637,0.00024151,0.0,0 STARLINK-5021,1 53902U 22119S   23110.58334491  .00024151  00000-0  14637-2 0  9994,2 53902  53.2170 325.9691 0001593  89.4007 310.9347 15.10465906  1308,6912.915,95.335,535.881,533.679,0.0
53902.0,STARLINK-5021,PAYLOAD,2023-04-20 16:00:00,15.10485661,0.0001613,53.217,325.5945,88.548,45.1711,-0.00082788,-0.00014052,0.0,0 STARLINK-5021,1 53902U 22119S   23110.66667824 -.00014052  00000-0 -82788-3 0  9996,2 53902  53.2170 325.5945 0001613  88.5480  45.1711 15.10485661 32849,6912.855,95.334,535.835,533.605,0.0
53902.0,STARLINK-5021,PAYLOAD,2023-04-20 22:00:00,15.10459669,0.000162,53.2168,324.4707,88.6328,325.2362,-3.4584e-05,-8.68e-06,0.0,0 STARLINK-5021,1 53902U 22119S   23110.91667824 -.00000868  00000-0 -34584-4 0  9996,2 53902  53.2168 324.4707 0001620  88.6328 325.2362 15.10459669  1300,6912.934,95.335,535.919,533.679,0.0
53902.0,STARLINK-5021,PAYLOAD,2023-04-21 14:00:01,15.10459525,0.0001527,53.2166,321.4684,87.1622,353.7982,0.0022738,0.00037745,0.0,0 STARLINK-5021,1 53902U 22119S   23111.58334491  .00037745  00000-0  22738-2 0  9999,2 53902  53.2166 321.4684 0001527  87.1622 353.7982 15.10459525  1301,6912.935,95.335,535.855,533.744,0.0
53902.0,STARLINK-5021,PAYLOAD,2023-04-22 00:00:02,15.10448758,0.0001526,53.2166,319.595,74.0762,113.901,0.002955,0.00049205,0.0,0 STARLINK-5021,1 53902U 22119S   23112.00002315  .00049205  00000-0  29550-2 0  9997,2 53902  53.2166 319.5950 0001526  74.0762 113.9010 15.10448758  1308,6912.967,95.336,535.887,533.778,0.0
53902.0,STARLINK-5021,PAYLOAD,2023-04-22 14:00:01,15.10533525,0.0001545,53.2167,316.9674,80.5215,41.1163,-0.0046448,-0.00076915,0.0,0 STARLINK-5021,1 53902U 22119S   23112.58334491 -.00076915  00000-0 -46448-2 0  9998,2 53902  53.2167 316.9674 0001545  80.5215  41.1163 15.10533525 33133,6912.709,95.331,535.642,533.506,0.0
53902.0,STARLINK-5021,PAYLOAD,2023-04-23 00:00:00,15.10412955,0.0001538,53.2168,315.0941,74.31,154.3293,-0.026452,-0.00415277,0.0,0 STARLINK-5021,1 53902U 22119S   23113.00001157 -.00415277  00000-0 -26452-1 0  9996,2 53902  53.2168 315.0941 0001538  74.3100 154.3293 15.10412955  1305,6913.077,95.338,536.005,533.878,0.0
53902.0,STARLINK-5021,PAYLOAD,2023-04-23 14:00:01,15.09883211,0.0001383,53.2172,312.468,86.6034,75.0712,-0.031626,-0.00489228,0.0,0 STARLINK-5021,1 53902U 22119S   23113.58334491 -.00489228  00000-0 -31626-1 0  9995,2 53902  53.2172 312.4680 0001383  86.6034  75.0712 15.09883211 33283,6914.694,95.372,537.515,535.602,0.0
53902.0,STARLINK-5021,PAYLOAD,2023-04-23 21:14:04,15.09508131,0.0002579,53.217,311.1225,186.7313,173.3645,-0.019425,-0.00302231,0.0,0 STARLINK-5021,1 53902U 22119S   23113.88476978 -.00302231  00000-0 -19425-1 0  9996,2 53902  53.2170 311.1225 0002579 186.7313 173.3645 15.09508131 33756,6915.839,95.395,539.488,535.92,0.0
53902.0,STARLINK-5021,PAYLOAD,2023-04-24 14:00:01,15.08858259,0.0001293,53.2177,307.9753,85.7926,112.6018,-0.0018102,-0.00028996,0.0,0 STARLINK-5021,1 53902U 22119S   23114.58334491 -.00028996  00000-0 -18102-2 0  9992,2 53902  53.2177 307.9753 0001293  85.7926 112.6018 15.08858259 33435,6917.825,95.436,540.584,538.795,0.0
53902.0,STARLINK-5021,PAYLOAD,2023-04-25 14:00:01,15.08841439,0.0001242,53.218,303.4864,84.2408,148.9546,0.00026664,3.958e-05,0.0,0 STARLINK-5021,1 53902U 22119S   23115.58335648  .00003958  00000-0  26664-3 0  9990,2 53902  53.2180 303.4864 0001242  84.2408 148.9546 15.08841439 33582,6917.876,95.437,540.6,538.882,0.0
53902.0,STARLINK-5021,PAYLOAD,2023-04-26 14:00:01,15.08873742,0.0001185,53.218,298.9977,86.6764,181.2306,-0.0012674,-0.0002042,0.0,0 STARLINK-5021,1 53902U 22119S   23116.58334491 -.00020420  00000-0 -12674-2 0  9996,2 53902  53.2180 298.9977 0001185  86.6764 181.2306 15.08873742  1303,6917.777,95.435,540.462,538.822,0.0
53902.0,STARLINK-5021,PAYLOAD,2023-04-27 00:00:00,15.08822345,0.0001136,53.2174,297.1286,77.4251,295.0147,0.0014448,0.0002277,0.0,0 STARLINK-5021,1 53902U 22119S   23117.00001157  .00022770  00000-0  14448-2 0  9993,2 53902  53.2174 297.1286 0001136  77.4251 295.0147 15.08822345  1305,6917.934,95.439,540.585,539.013,0.0
53902.0,STARLINK-5021,PAYLOAD,2023-04-27 14:00:01,15.08862672,0.0001112,53.2175,294.5089,95.3284,207.4435,-0.0013689,-0.00022021,0.0,0 STARLINK-5021,1 53902U 22119S   23117.58335648 -.00022021  00000-0 -13689-2 0  9998,2 53902  53.2175 294.5089 0001112  95.3284 207.4435 15.08862672  1301,6917.811,95.436,540.445,538.907,0.0
53902.0,STARLINK-5021,PAYLOAD,2023-04-28 00:00:00,15.08814823,0.0001044,53.2168,292.6397,87.4304,319.8156,0.0011866,0.00018634,0.0,0 STARLINK-5021,1 53902U 22119S   23118.00001157  .00018634  00000-0  11866-2 0  9999,2 53902  53.2168 292.6397 0001044  87.4304 319.8156 15.08814823 33952,6917.957,95.439,540.545,539.1,0.0
53902.0,STARLINK-5021,PAYLOAD,2023-04-28 10:55:14,15.0884128,0.0001114,53.2164,290.5969,87.9643,272.1477,3.2062e-05,2.23e-06,0.0,0 STARLINK-5021,1 53902U 22119S   23118.45502523  .00000223  00000-0  32062-4 0  9999,2 53902  53.2164 290.5969 0001114  87.9643 272.1477 15.08841280 34448,6917.876,95.437,540.512,538.971,0.0
53902.0,STARLINK-5021,PAYLOAD,2023-04-28 14:06:00,15.08838635,0.0001354,53.2167,290.0004,83.4233,276.6913,-5.4791e-05,-1.16e-05,0.0,0 STARLINK-5021,1 53902U 22119S   23118.58750735 -.00001160  00000-0 -54791-4 0  9999,2 53902  53.2167 290.0004 0001354  83.4233 276.6913 15.08838635 34048,6917.885,95.438,540.686,538.813,0.0
53902.0,STARLINK-5021,PAYLOAD,2023-04-29 10:46:01,15.08837878,0.0001267,53.2176,286.1343,87.9503,272.1634,5.232e-05,5.45e-06,0.0,0 STARLINK-5021,1 53902U 22119S   23119.44863090  .00000545  00000-0  52320-4 0  9994,2 53902  53.2176 286.1343 0001267  87.9503 272.1634 15.08837878 34591,6917.887,95.438,540.628,538.875,0.0
53902.0,STARLINK-5021,PAYLOAD,2023-04-29 17:07:33,15.08843479,0.000122,53.2177,284.9452,88.645,271.4682,8.438e-05,1.055e-05,0.0,0 STARLINK-5021,1 53902U 22119S   23119.71358612  .00001055  00000-0  84380-4 0  9991,2 53902  53.2177 284.9452 0001220  88.6450 271.4682 15.08843479 34215,6917.87,95.437,540.579,538.891,0.0
53902.0,STARLINK-5021,PAYLOAD,2023-04-30 10:36:48,15.08838448,0.0001107,53.2184,281.6744,105.4923,254.6191,5.4329e-05,5.77e-06,0.0,0 STARLINK-5021,1 53902U 22119S   23120.44222883  .00000577  00000-0  54329-4 0  9991,2 53902  53.2184 281.6744 0001107 105.4923 254.6191 15.08838448 34328,6917.885,95.438,540.516,538.984,0.0
53902.0,STARLINK-5021,PAYLOAD,2023-04-30 20:09:07,15.08844283,0.0001134,53.2175,279.8895,96.5518,263.5603,0.00012773,1.746e-05,0.0,0 STARLINK-5021,1 53902U 22119S   23120.83966452  .00001746  00000-0  12773-3 0  9996,2 53902  53.2175 279.8895 0001134  96.5518 263.5603 15.08844283 34381,6917.867,95.437,540.517,538.948,0.0
53902.0,STARLINK-5021,PAYLOAD,2023-05-01 10:27:35,15.08839307,0.0001423,53.216,277.2144,67.2375,292.8767,2.6686e-05,1.37e-06,0.0,0 STARLINK-5021,1 53902U 22119S   23121.43583285  .00000137  00000-0  26686-4 0  9994,2 53902  53.2160 277.2144 0001423  67.2375 292.8767 15.08839307 34478,6917.883,95.438,540.732,538.763,0.0
53902.0,STARLINK-5021,PAYLOAD,2023-05-01 13:38:22,15.08838691,0.0001289,53.2162,276.6192,75.9105,284.203,1.3147e-05,-7.9e-07,0.0,0 STARLINK-5021,1 53902U 22119S   23121.56831300 -.00000079  00000-0  13147-4 0  9996,2 53902  53.2162 276.6192 0001289  75.9105 284.2030 15.08838691 34915,6917.884,95.438,540.641,538.858,0.0
53902.0,STARLINK-5021,PAYLOAD,2023-05-01 18:24:31,15.08839474,0.0001486,53.2166,275.7269,93.3219,266.7943,2.1844e-05,6e-07,0.0,0 STARLINK-5021,1 53902U 22119S   23121.76703189  .00000060  00000-0  21844-4 0  9993,2 53902  53.2166 275.7269 0001486  93.3219 266.7943 15.08839474 34944,6917.882,95.438,540.775,538.719,0.0
53902.0,STARLINK-5021,PAYLOAD,2023-05-02 11:53:45,15.08848497,0.0001184,53.2171,272.4553,95.7355,264.3773,9.9393e-05,1.295e-05,0.0,0 STARLINK-5021,1 53902U 22119S   23122.49566263  .00001295  00000-0  99393-4 0  9999,2 53902  53.2171 272.4553 0001184  95.7355 264.3773 15.08848497 34638,6917.854,95.437,540.538,538.9,0.0
53902.0,STARLINK-5021,PAYLOAD,2023-05-02 13:29:08,15.08849435,0.0001177,53.2171,272.1578,98.2868,261.8258,0.00010665,1.41e-05,0.0,0 STARLINK-5021,1 53902U 22119S   23122.56190147  .00001410  00000-0  10665-3 0  9994,2 53902  53.2171 272.1578 0001177  98.2868 261.8258 15.08849435 35062,6917.852,95.437,540.531,538.902,0.0
